#aV2009  5 13  0  0   .00000000      96 DD+AD WGS84 FIT  NGA
## 1531 259200.00000000   900.00000000 54964  .0000000000000
+   31     2  3  4  5  6  7  8  9 10 11 12 13 14 15 16 17 18
+         19 20 21 22 23 24 25 26 27 28 29 30 31 32  0  0  0
+          0  0  0  0  0  0  0  0  0  0  0  0  0  0  0  0  0
+          0  0  0  0  0  0  0  0  0  0  0  0  0  0  0  0  0
+          0  0  0  0  0  0  0  0  0  0  0  0  0  0  0  0  0
++         0  0  0  0  0  0  0  0  0  0  0  0  0  0  0  0  0
++         0  0  0  0  0  0  0  0  0  0  0  0  0  0  0  0  0
++         0  0  0  0  0  0  0  0  0  0  0  0  0  0  0  0  0
++         0  0  0  0  0  0  0  0  0  0  0  0  0  0  0  0  0
++         0  0  0  0  0  0  0  0  0  0  0  0  0  0  0  0  0
%c cc cc ccc ccc cccc cccc cccc cccc ccccc ccccc ccccc ccccc
%c cc cc ccc ccc cccc cccc cccc cccc ccccc ccccc ccccc ccccc
%f  0.0000000  0.000000000  0.00000000000  0.000000000000000
%f  0.0000000  0.000000000  0.00000000000  0.000000000000000
%i    0    0    0    0      0      0      0      0         0
%i    0    0    0    0      0      0      0      0         0
/*      NGA, ST. LOUIS,MO.                                  
/*   EPHEMERIS COMPUTED FROM  3 DAYS OF DATA                
/* CCCCCCCCCCCCCCCCCCCCCCCCCCCCCCCCCCCCCCCCCCCCCCCCCCCCCCCCC
/* CCCCCCCCCCCCCCCCCCCCCCCCCCCCCCCCCCCCCCCCCCCCCCCCCCCCCCCCC
*  2009  5 13 15  0   .00000000                                                 
P  2  18650.842179  -4632.404842 -18254.761159    154.155146                    
V  2 -10703.077844  20678.408647 -16678.932282       .005051                    
P  3 -17270.424184   1045.329036  19925.835711    392.490406                    
V  3 -13381.604641 -22361.492428  -9911.571041       .051190                    
P  4  13722.369597   7706.102226 -21536.713307    -89.424324                    
V  4 -14936.416899  22615.279151  -1068.399897      -.153777                    
P  5  11483.789031 -14461.478948 -19349.312118    -76.355286                    
V  5  24061.018931    445.180152  14292.074184      -.195067                    
P  6 -18479.812663  -4388.313435  18781.403854    121.038782                    
V  6 -10124.936587 -21303.317721 -15039.812669       .154432                    
P  7  -3961.410668  22665.422091  13143.029134     18.923656                    
V  7 -10968.084865  12852.774018 -25543.641730      -.006375                    
P  8   6642.903913  14410.933528  21144.788744   -202.853886                    
V  8 -16722.582749  21224.237180  -9672.380343      -.017342                    
P  9  14728.744524 -21885.981939   1909.220084     55.642848                    
V  9    423.819935   4024.875385  32046.116623       .019906                    
P 10  26057.253555  -1878.910905   5532.757016    -15.936300                    
V 10   6952.734974   3087.759933 -30453.314615      -.005163                    
P 11 -11257.775303  23688.952082   2548.900372     -2.390905                    
V 11  -3695.366555  -5210.358460  30080.237361      -.013688                    
P 12  13710.931464 -12331.825230 -18997.680986   -281.720374                    
V 12  24178.290671   2786.133809  15700.146141       .052413                    
P 13   4722.780271  24725.444029  -8609.702961    296.980225                    
V 13  -5733.961544  -9183.631281 -29969.976793       .009581                    
P 14 -15104.523315 -20426.562306  -7831.132814   -111.273860                    
V 14  -2618.048331  -9857.637853  30194.338851       .059340                    
P 15  12592.315904  -8880.312460  21650.803115   -291.204610                    
V 15  13007.149488  24188.642406   2418.351128      -.037970                    
P 16 -26641.718246  -1228.728759   1126.588797     51.395679                    
V 16  -1162.367348  -2471.513909 -31719.274750      -.033247                    
P 17  15073.355600  21090.173360  -6161.642365     58.787861                    
V 17   1103.788516   8219.528128  30305.125329       .018911                    
P 18  -8325.202878 -15451.807452  20253.787039    -57.282902                    
V 18  25188.991366   1116.824117  10957.205621       .032927                    
P 19 -11912.278386  10465.019509  21338.068191     25.795798                    
V 19 -11056.325252 -24638.102670   6174.829057      -.011152                    
P 20 -11453.438830  13927.769908 -19615.265602     82.751664                    
V 20 -24658.048529  -2123.323000  13015.821307      -.010410                    
P 21     47.360796 -21112.313261  15979.849751     14.208000                    
V 21  13595.613630 -15144.085183 -21005.948850      -.020695                    
P 22 -18878.292443 -12199.985924  14360.825293    199.730354                    
V 22  18145.690421   -887.112417  23281.627187      -.005738                    
P 23  -3870.238705  19340.717961 -17700.183775    389.985578                    
V 23 -11522.013315 -19348.839103 -18949.633784       .001699                    
P 24  12459.882868 -23127.936994   4898.953019    188.572680                    
V 24   5811.351117  -3219.807579 -30559.103838       .030134                    
P 25  -7838.670613  24703.194567   6609.602279    410.149582                    
V 25  -5616.217123   5962.477651 -30355.374897       .196777                    
P 26   5691.219343 -17252.957121  18641.398381     60.733056                    
V 26  11302.362746  22256.533525  17170.239271       .013247                    
P 27  18018.363943 -16677.145843  10851.541306     48.751246                    
V 27  -4677.484892  11996.844492  27954.045891       .031017                    
P 28  16867.616763  12898.513676  16580.183122    -24.744951                    
V 28 -20159.836169   -251.324291  20953.676040      -.002744                    
P 29  -3987.302344 -24335.868162  -9809.700416     19.642351                    
V 29   7724.594552  10277.723567 -28285.080928       .038064                    
P 30   1228.251600 -15555.593034 -21856.447260    145.981773                    
V 30  26921.260895    441.331229   1302.848039       .028030                    
P 31 -14219.059009  -5158.374763 -21637.847527    -60.129218                    
V 31  14967.395098 -23568.454632  -4040.550290      -.009308                    
P 32 -19817.795987   7921.046156 -15248.556735    262.075542                    
V 32 -19677.775052  -4965.469187  22662.475535      -.051816                    
EOF
